COSMOS 2058             
1 20465U 90010A   26095.26203936  .00006125  00000+0  35896-3 0  9997
2 20465  82.4730  21.2470 0008150 235.6862 124.3598 15.11596258946256
SL-14 R/B               
1 20466U 90010B   26095.46300485  .00000731  00000+0  85551-4 0  9998
2 20466  82.5008 242.2336 0019108 207.9130 152.1061 14.83597451932452
SL-14 R/B               
1 20511U 90018B   26095.57400327  .00000634  00000+0  76576-4 0  9994
2 20511  82.5244 197.9680 0016321   8.7440 351.4055 14.82173528926564
HST                     
1 20580U 90037B   26095.62622797  .00009304  00000+0  30389-3 0  9998
2 20580  28.4724 216.1877 0002248  70.2835 289.8004 15.29942321777445
SL-16 R/B               
1 20625U 90046B   26095.56005466 -.00000009  00000+0  20021-4 0  9996
2 20625  70.9989 241.4761 0016583 264.7953  95.1277 14.15019437852194
COSMOS 2084             
1 20663U 90055A   26095.48563223  .00004010  00000+0  28833-3 0  9992
2 20663  62.7899 244.1722 0012792 199.3250 160.7367 15.05822193940359
SL-6 R/B(2)             
1 20666U 90055D   26095.50510301  .00002649  00000+0  20501-3 0  9997
2 20666  62.7826 162.6522 0029201 352.9885   7.0802 15.03732466942224
SL-8 R/B                
1 20775U 90078B   26095.44676840  .00014697  00000+0  43511-3 0  9999
2 20775  82.9045 227.2286 0357372 283.6799  72.4874 14.89867278813285
SL-8 R/B                
1 21088U 91006B   26095.58251907  .00000130  00000+0  11529-3 0  9998
2 21088  82.9432 150.0508 0021390 322.7789 148.0959 13.77498992767770
OKEAN-3                 
1 21397U 91039A   26095.60824092  .00004142  00000+0  28980-3 0  9997
2 21397  82.5151 310.7586 0012967 237.2071 122.7907 15.04977102869088
COSMOS 2151             
1 21422U 91042A   26095.56390108  .00003519  00000+0  27892-3 0  9999
2 21422  82.4964  57.7454 0011644 336.8968  23.1731 15.00233853867229
SL-14 R/B               
1 21423U 91042B   26095.56525878  .00000658  00000+0  80097-4 0  9992
2 21423  82.4961 194.9873 0017848 148.7208 211.5072 14.81858904857054
