CCSDS_OMM_VERS = 2.0
CREATION_DATE  = 
ORIGINATOR     = 

OBJECT_NAME    = COSMOS 2058
OBJECT_ID      = 1990-010A
CENTER_NAME    = EARTH
REF_FRAME      = TEME
TIME_SYSTEM    = UTC
MEAN_ELEMENT_THEORY = SGP/SGP4

EPOCH          = 2026-04-05T06:17:20.200704
MEAN_MOTION    = 15.11596258
ECCENTRICITY   = .000815
INCLINATION    = 82.4730
RA_OF_ASC_NODE = 21.2470
ARG_OF_PERICENTER = 235.6862
MEAN_ANOMALY   = 124.3598

EPHEMERIS_TYPE = 0
CLASSIFICATION_TYPE = U
NORAD_CAT_ID   = 20465
ELEMENT_SET_NO = 999
REV_AT_EPOCH   = 94625
BSTAR          = .35896E-3
MEAN_MOTION_DOT = .6125E-4
MEAN_MOTION_DDOT = 0

CCSDS_OMM_VERS = 2.0
CREATION_DATE  = 
ORIGINATOR     = 

OBJECT_NAME    = SL-14 R/B
OBJECT_ID      = 1990-010B
CENTER_NAME    = EARTH
REF_FRAME      = TEME
TIME_SYSTEM    = UTC
MEAN_ELEMENT_THEORY = SGP/SGP4

EPOCH          = 2026-04-05T11:06:43.619040
MEAN_MOTION    = 14.83597451
ECCENTRICITY   = .00191086
INCLINATION    = 82.5008
RA_OF_ASC_NODE = 242.2336
ARG_OF_PERICENTER = 207.9130
MEAN_ANOMALY   = 152.1061

EPHEMERIS_TYPE = 0
CLASSIFICATION_TYPE = U
NORAD_CAT_ID   = 20466
ELEMENT_SET_NO = 999
REV_AT_EPOCH   = 93245
BSTAR          = .85551315E-4
MEAN_MOTION_DOT = .731E-5
MEAN_MOTION_DDOT = 0

CCSDS_OMM_VERS = 2.0
CREATION_DATE  = 
ORIGINATOR     = 

OBJECT_NAME    = SL-14 R/B
OBJECT_ID      = 1990-018B
CENTER_NAME    = EARTH
REF_FRAME      = TEME
TIME_SYSTEM    = UTC
MEAN_ELEMENT_THEORY = SGP/SGP4

EPOCH          = 2026-04-05T13:46:33.882528
MEAN_MOTION    = 14.82173528
ECCENTRICITY   = .00163219
INCLINATION    = 82.5244
RA_OF_ASC_NODE = 197.9680
ARG_OF_PERICENTER = 8.7440
MEAN_ANOMALY   = 351.4055

EPHEMERIS_TYPE = 0
CLASSIFICATION_TYPE = U
NORAD_CAT_ID   = 20511
ELEMENT_SET_NO = 999
REV_AT_EPOCH   = 92656
BSTAR          = .76576037E-4
MEAN_MOTION_DOT = .634E-5
MEAN_MOTION_DDOT = 0

CCSDS_OMM_VERS = 2.0
CREATION_DATE  = 
ORIGINATOR     = 

OBJECT_NAME    = HST
OBJECT_ID      = 1990-037B
CENTER_NAME    = EARTH
REF_FRAME      = TEME
TIME_SYSTEM    = UTC
MEAN_ELEMENT_THEORY = SGP/SGP4

EPOCH          = 2026-04-05T15:01:46.096608
MEAN_MOTION    = 15.29942321
ECCENTRICITY   = .00022485
INCLINATION    = 28.4724
RA_OF_ASC_NODE = 216.1877
ARG_OF_PERICENTER = 70.2835
MEAN_ANOMALY   = 289.8004

EPHEMERIS_TYPE = 0
CLASSIFICATION_TYPE = U
NORAD_CAT_ID   = 20580
ELEMENT_SET_NO = 999
REV_AT_EPOCH   = 77744
BSTAR          = .30388801E-3
MEAN_MOTION_DOT = .9304E-4
MEAN_MOTION_DDOT = 0

CCSDS_OMM_VERS = 2.0
CREATION_DATE  = 
ORIGINATOR     = 

OBJECT_NAME    = SL-16 R/B
OBJECT_ID      = 1990-046B
CENTER_NAME    = EARTH
REF_FRAME      = TEME
TIME_SYSTEM    = UTC
MEAN_ELEMENT_THEORY = SGP/SGP4

EPOCH          = 2026-04-05T13:26:28.722624
MEAN_MOTION    = 14.15019437
ECCENTRICITY   = .0016583
INCLINATION    = 70.9989
RA_OF_ASC_NODE = 241.4761
ARG_OF_PERICENTER = 264.7953
MEAN_ANOMALY   = 95.1277

EPHEMERIS_TYPE = 0
CLASSIFICATION_TYPE = U
NORAD_CAT_ID   = 20625
ELEMENT_SET_NO = 999
REV_AT_EPOCH   = 85219
BSTAR          = .20021163E-4
MEAN_MOTION_DOT = -.9E-7
MEAN_MOTION_DDOT = 0

CCSDS_OMM_VERS = 2.0
CREATION_DATE  = 
ORIGINATOR     = 

OBJECT_NAME    = COSMOS 2084
OBJECT_ID      = 1990-055A
CENTER_NAME    = EARTH
REF_FRAME      = TEME
TIME_SYSTEM    = UTC
MEAN_ELEMENT_THEORY = SGP/SGP4

EPOCH          = 2026-04-05T11:39:18.624672
MEAN_MOTION    = 15.05822193
ECCENTRICITY   = .00127922
INCLINATION    = 62.7899
RA_OF_ASC_NODE = 244.1722
ARG_OF_PERICENTER = 199.3250
MEAN_ANOMALY   = 160.7367

EPHEMERIS_TYPE = 0
CLASSIFICATION_TYPE = U
NORAD_CAT_ID   = 20663
ELEMENT_SET_NO = 999
REV_AT_EPOCH   = 94035
BSTAR          = .28832859E-3
MEAN_MOTION_DOT = .401E-4
MEAN_MOTION_DDOT = 0

CCSDS_OMM_VERS = 2.0
CREATION_DATE  = 
ORIGINATOR     = 

OBJECT_NAME    = SL-6 R/B(2)
OBJECT_ID      = 1990-055D
CENTER_NAME    = EARTH
REF_FRAME      = TEME
TIME_SYSTEM    = UTC
MEAN_ELEMENT_THEORY = SGP/SGP4

EPOCH          = 2026-04-05T12:07:20.900064
MEAN_MOTION    = 15.03732466
ECCENTRICITY   = .00292012
INCLINATION    = 62.7826
RA_OF_ASC_NODE = 162.6522
ARG_OF_PERICENTER = 352.9885
MEAN_ANOMALY   = 7.0802

EPHEMERIS_TYPE = 0
CLASSIFICATION_TYPE = U
NORAD_CAT_ID   = 20666
ELEMENT_SET_NO = 999
REV_AT_EPOCH   = 94222
BSTAR          = .20501111E-3
MEAN_MOTION_DOT = .2649E-4
MEAN_MOTION_DDOT = 0

CCSDS_OMM_VERS = 2.0
CREATION_DATE  = 
ORIGINATOR     = 

OBJECT_NAME    = SL-8 R/B
OBJECT_ID      = 1990-078B
CENTER_NAME    = EARTH
REF_FRAME      = TEME
TIME_SYSTEM    = UTC
MEAN_ELEMENT_THEORY = SGP/SGP4

EPOCH          = 2026-04-05T10:43:20.789760
MEAN_MOTION    = 14.89867278
ECCENTRICITY   = .0357372
INCLINATION    = 82.9045
RA_OF_ASC_NODE = 227.2286
ARG_OF_PERICENTER = 283.6799
MEAN_ANOMALY   = 72.4874

EPHEMERIS_TYPE = 0
CLASSIFICATION_TYPE = U
NORAD_CAT_ID   = 20775
ELEMENT_SET_NO = 999
REV_AT_EPOCH   = 81328
BSTAR          = .43511E-3
MEAN_MOTION_DOT = .14697E-3
MEAN_MOTION_DDOT = 0

CCSDS_OMM_VERS = 2.0
CREATION_DATE  = 
ORIGINATOR     = 

OBJECT_NAME    = SL-8 R/B
OBJECT_ID      = 1991-006B
CENTER_NAME    = EARTH
REF_FRAME      = TEME
TIME_SYSTEM    = UTC
MEAN_ELEMENT_THEORY = SGP/SGP4

EPOCH          = 2026-04-05T13:58:49.647648
MEAN_MOTION    = 13.77498992
ECCENTRICITY   = .00213904
INCLINATION    = 82.9432
RA_OF_ASC_NODE = 150.0508
ARG_OF_PERICENTER = 322.7789
MEAN_ANOMALY   = 148.0959

EPHEMERIS_TYPE = 0
CLASSIFICATION_TYPE = U
NORAD_CAT_ID   = 21088
ELEMENT_SET_NO = 999
REV_AT_EPOCH   = 76777
BSTAR          = .11529165E-3
MEAN_MOTION_DOT = .13E-5
MEAN_MOTION_DDOT = 0

CCSDS_OMM_VERS = 2.0
CREATION_DATE  = 
ORIGINATOR     = 

OBJECT_NAME    = OKEAN-3
OBJECT_ID      = 1991-039A
CENTER_NAME    = EARTH
REF_FRAME      = TEME
TIME_SYSTEM    = UTC
MEAN_ELEMENT_THEORY = SGP/SGP4

EPOCH          = 2026-04-05T14:35:52.015488
MEAN_MOTION    = 15.04977102
ECCENTRICITY   = .00129677
INCLINATION    = 82.5151
RA_OF_ASC_NODE = 310.7586
ARG_OF_PERICENTER = 237.2071
MEAN_ANOMALY   = 122.7907

EPHEMERIS_TYPE = 0
CLASSIFICATION_TYPE = U
NORAD_CAT_ID   = 21397
ELEMENT_SET_NO = 999
REV_AT_EPOCH   = 86908
BSTAR          = .28979515E-3
MEAN_MOTION_DOT = .4142E-4
MEAN_MOTION_DDOT = 0

CCSDS_OMM_VERS = 2.0
CREATION_DATE  = 
ORIGINATOR     = 

OBJECT_NAME    = COSMOS 2151
OBJECT_ID      = 1991-042A
CENTER_NAME    = EARTH
REF_FRAME      = TEME
TIME_SYSTEM    = UTC
MEAN_ELEMENT_THEORY = SGP/SGP4

EPOCH          = 2026-04-05T13:32:01.053312
MEAN_MOTION    = 15.00233853
ECCENTRICITY   = .0011644
INCLINATION    = 82.4964
RA_OF_ASC_NODE = 57.7454
ARG_OF_PERICENTER = 336.8968
MEAN_ANOMALY   = 23.1731

EPHEMERIS_TYPE = 0
CLASSIFICATION_TYPE = U
NORAD_CAT_ID   = 21422
ELEMENT_SET_NO = 999
REV_AT_EPOCH   = 86722
BSTAR          = .27892377E-3
MEAN_MOTION_DOT = .3519E-4
MEAN_MOTION_DDOT = 0

CCSDS_OMM_VERS = 2.0
CREATION_DATE  = 
ORIGINATOR     = 

OBJECT_NAME    = SL-14 R/B
OBJECT_ID      = 1991-042B
CENTER_NAME    = EARTH
REF_FRAME      = TEME
TIME_SYSTEM    = UTC
MEAN_ELEMENT_THEORY = SGP/SGP4

EPOCH          = 2026-04-05T13:33:58.358592
MEAN_MOTION    = 14.81858904
ECCENTRICITY   = .00178486
INCLINATION    = 82.4961
RA_OF_ASC_NODE = 194.9873
ARG_OF_PERICENTER = 148.7208
MEAN_ANOMALY   = 211.5072

EPHEMERIS_TYPE = 0
CLASSIFICATION_TYPE = U
NORAD_CAT_ID   = 21423
ELEMENT_SET_NO = 999
REV_AT_EPOCH   = 85705
BSTAR          = .80096663E-4
MEAN_MOTION_DOT = .658E-5
MEAN_MOTION_DDOT = 0

